[{"OBJECT_NAME":"STARLINK-33744","OBJECT_ID":"2025-070M","EPOCH":"2026-03-09T22:48:28.283904","MEAN_MOTION":15.27602912,"ECCENTRICITY":0.00021785,"INCLINATION":42.9994,"RA_OF_ASC_NODE":258.5545,"ARG_OF_PERICENTER":261.243,"MEAN_ANOMALY":98.8175,"EPHEMERIS_TYPE":0,"CLASSIFICATION_TYPE":"U","NORAD_CAT_ID":63471,"ELEMENT_SET_NO":999,"REV_AT_EPOCH":5301,"BSTAR":0.0013124845,"MEAN_MOTION_DOT":0.00036058,"MEAN_MOTION_DDOT":0},{"OBJECT_NAME":"CZ-6A DEB","OBJECT_ID":"2022-151ME","EPOCH":"2026-03-09T17:07:50.636064","MEAN_MOTION":15.20556855,"ECCENTRICITY":0.00283971,"INCLINATION":98.6182,"RA_OF_ASC_NODE":149.2426,"ARG_OF_PERICENTER":178.5587,"MEAN_ANOMALY":181.5732,"EPHEMERIS_TYPE":0,"CLASSIFICATION_TYPE":"U","NORAD_CAT_ID":54578,"ELEMENT_SET_NO":999,"REV_AT_EPOCH":10518,"BSTAR":0.0077423675,"MEAN_MOTION_DOT":0.00175116,"MEAN_MOTION_DDOT":0}]
